OBJECT_NAME,OBJECT_ID,EPOCH,MEAN_MOTION,ECCENTRICITY,INCLINATION,RA_OF_ASC_NODE,ARG_OF_PERICENTER,MEAN_ANOMALY,EPHEMERIS_TYPE,CLASSIFICATION_TYPE,NORAD_CAT_ID,ELEMENT_SET_NO,REV_AT_EPOCH,BSTAR,MEAN_MOTION_DOT,MEAN_MOTION_DDOT
STARLINK-32342,2024-171T,2026-06-18T06:00:02.000160,15.31742261,.00012383,53.1584,215.3191,80.4489,335.5792,0,U,61217,999,587,-.97715852E-3,-.30604E-3,0
STARLINK-32423,2024-171U,2026-06-18T02:42:41.219712,15.30183243,.00012695,53.1591,215.9969,76.5065,283.6077,0,U,61218,999,9865,-.46094908E-4,-.1723E-4,0
STARLINK-32248,2024-171V,2026-06-17T10:51:12.219264,15.31686144,.00012036,53.1590,218.9804,103.7344,256.3791,0,U,61219,999,9855,-.5194984E-4,-.1976E-4,0
STARLINK-11300 [DTC],2024-175A,2026-06-17T12:10:25.491936,15.69694632,.00009851,53.1587,284.2268,94.7807,265.3324,0,U,61243,999,9904,.13124863E-4,.1001E-4,0
STARLINK-11276 [DTC],2024-175B,2026-06-17T12:03:22.287456,15.69694437,.00013721,53.1601,284.1933,87.6292,272.4883,0,U,61244,999,9904,-.14879218E-4,-.239E-4,0
STARLINK-11280 [DTC],2024-175C,2026-06-17T14:52:25.754592,15.69804383,.00007207,53.1589,283.5062,93.6550,266.4550,0,U,61245,999,9906,.9158334E-4,.10564E-3,0
STARLINK-11308 [DTC],2024-175D,2026-06-17T14:59:39.562944,15.69706554,.00008175,53.1582,283.5329,74.0609,286.0499,0,U,61246,999,9906,.7791332E-5,.356E-5,0
STARLINK-11305 [DTC],2024-175E,2026-06-17T14:45:31.749984,15.69706394,.00009532,53.1592,283.4628,75.1836,284.9287,0,U,61247,999,9906,.9097011E-5,.514E-5,0
STARLINK-11317 [DTC],2024-175F,2026-06-18T07:26:59.140608,15.69709531,.00007339,53.1564,279.9792,87.7260,272.3842,0,U,61248,999,9917,.74683503E-4,.8469E-4,0
STARLINK-11293 [DTC],2024-175G,2026-06-17T19:06:27.345312,15.69705898,.00007159,53.1585,282.4613,69.5543,290.5551,0,U,61249,999,9909,.16379931E-4,.1396E-4,0
STARLINK-11319 [DTC],2024-175J,2026-06-18T07:05:56.159232,15.69714065,.0000746,53.1579,280.6171,49.1755,310.9328,0,U,61251,999,9916,.750534E-5,.321E-5,0
STARLINK-11318 [DTC],2024-175K,2026-06-18T06:58:54.358752,15.69690540,.00010814,53.1601,280.5882,65.7158,294.3973,0,U,61252,999,10033,-.10492127E-4,-.1858E-4,0
STARLINK-11311 [DTC],2024-175L,2026-06-17T12:31:36.546528,15.69707335,.0000685,53.1579,284.3151,78.9112,281.1982,0,U,61253,999,10025,.11274719E-4,.778E-5,0
STARLINK-11306 [DTC],2024-175M,2026-06-17T12:24:32.786496,15.69708721,.00007545,53.1572,284.2797,52.1304,307.9782,0,U,61254,999,10024,.1802506E-5,-.37E-5,0
STARLINK-11313 [DTC],2024-175N,2026-06-17T12:17:28.019040,15.69710610,.00010986,53.1583,284.2512,144.3666,215.7426,0,U,61255,999,9904,-.11039237E-4,-.1926E-4,0
STARLINK-32431,2024-175P,2026-06-18T02:11:49.591680,15.34390253,.00013898,53.1597,87.1159,95.6923,264.4238,0,U,61256,999,9683,.3145148E-4,.686E-5,0
STARLINK-32432,2024-175Q,2026-06-18T02:02:44.952864,15.34382623,.00012747,53.1596,87.0778,79.4397,280.6749,0,U,61257,999,9683,-.5545648E-5,-.563E-5,0
STARLINK-32382,2024-175R,2026-06-18T01:44:33.500544,15.34393527,.00012766,53.1612,86.9965,91.1283,268.9865,0,U,61258,999,9683,.19241162E-4,.274E-5,0
STARLINK-32435,2024-175S,2026-06-18T04:30:55.850688,15.34402490,.00011989,53.1611,86.3001,83.3934,276.7205,0,U,61259,999,9685,.32401485E-4,.719E-5,0
STARLINK-32474,2024-175T,2026-06-18T04:03:45.283104,15.34421664,.00014758,53.1616,86.8832,84.7767,275.3404,0,U,61260,999,9684,.15155883E-3,.4751E-4,0
STARLINK-32447,2024-175U,2026-06-18T00:47:07.331136,15.34370555,.00017809,53.1610,87.4573,154.6444,205.4646,0,U,61261,999,9682,.44179556E-4,.1115E-4,0
STARLINK-32446,2024-175V,2026-06-18T04:33:57.479904,15.34404097,.00012479,53.1613,86.3120,97.2449,262.8696,0,U,61262,999,9685,.2976394E-4,.63E-5,0
STARLINK-32174,2024-183A,2026-06-18T07:04:34.876704,15.34387706,.00012857,53.1622,21.7878,92.2220,267.8930,0,U,61509,999,9524,.11994435E-3,.3677E-4,0
STARLINK-32139,2024-183B,2026-06-18T01:00:36.446400,15.31723265,.0001143,53.1612,35.8470,63.2447,296.8671,0,U,61510,999,9502,-.24437388E-4,-.1124E-4,0
STARLINK-32140,2024-183C,2026-06-18T00:33:43.907040,15.31708679,.00013097,53.1614,35.7305,95.9198,264.1953,0,U,61511,999,9502,-.51051992E-4,-.1949E-4,0
STARLINK-32201,2024-183D,2026-06-17T21:53:55.812192,15.34387964,.0001076,53.1620,23.6720,78.1847,281.9276,0,U,61512,999,9517,.12498267E-4,.46E-6,0
STARLINK-32030,2024-183E,2026-06-18T00:46:38.933184,15.30190401,.00014014,53.1605,36.4916,87.3617,272.7544,0,U,61513,999,9501,-.30832845E-4,-.1272E-4,0
STARLINK-31837,2024-183F,2026-06-17T22:54:21.932064,15.30177547,.00010303,53.1607,36.7076,87.0570,273.0548,0,U,61514,999,9500,.10173925E-3,.2653E-4,0
STARLINK-32136,2024-183G,2026-06-17T22:12:51.818400,15.31715632,.00010201,53.1612,36.5434,87.8149,272.2969,0,U,61515,999,9500,-.19217866E-4,-.962E-5,0
STARLINK-32047,2024-183H,2026-06-17T21:39:14.749920,15.31698256,.00010799,53.1608,36.3891,94.9219,265.1906,0,U,61516,999,9500,-.1216273E-3,-.4137E-4,0
STARLINK-31756,2024-183J,2026-06-17T22:15:00.258912,15.30193492,.00012478,53.1603,37.1984,98.1055,262.0087,0,U,61517,999,9499,-.11973514E-4,-.714E-5,0
STARLINK-32172,2024-183K,2026-06-18T00:40:27.261120,15.31702435,.00013309,53.1612,35.7491,83.3377,276.7776,0,U,61518,999,9502,.7173477E-5,-.143E-5,0
STARLINK-32338,2024-183L,2026-06-17T21:40:19.294176,15.49315428,.00011013,53.1601,31.4086,77.3543,282.7589,0,U,61519,999,9507,.16353934E-4,.462E-5,0
STARLINK-32306,2024-183M,2026-06-18T01:07:19.561152,15.31717806,.00013294,53.1619,35.8611,82.3017,277.8136,0,U,61520,999,9502,.75673439E-4,.1985E-4,0
STARLINK-32297,2024-183N,2026-06-17T20:51:26.322624,15.30190772,.00013089,53.1613,36.8796,92.7704,267.3447,0,U,61521,999,9499,.17850118E-4,.169E-5,0
STARLINK-32260,2024-183P,2026-06-18T01:01:25.217472,15.32273121,.00009868,53.1579,35.8299,181.8666,178.2332,0,U,61522,999,9502,.90468446E-3,.28323E-3,0
STARLINK-32305,2024-183Q,2026-06-17T21:33:59.179968,15.30192496,.00014391,53.1608,37.0669,87.7259,272.3907,0,U,61523,999,9499,.19948799E-4,.231E-5,0
STARLINK-32296,2024-183R,2026-06-18T00:27:00.768096,15.31703774,.00013411,53.1603,35.6862,90.0716,270.0440,0,U,61524,999,9502,.17822418E-3,.517E-4,0
STARLINK-32298,2024-183S,2026-06-18T00:53:53.203776,15.31712542,.00015129,53.1617,35.7972,85.6983,274.4191,0,U,61525,999,9502,-.25596641E-4,-.116E-4,0
STARLINK-32293,2024-183T,2026-06-18T01:15:31.393152,15.30201492,.00012894,53.1611,36.5995,73.9901,286.1242,0,U,61526,999,9501,.16183579E-4,.12E-5,0
STARLINK-32313,2024-183U,2026-06-17T21:58:16.969152,15.30208854,.00013459,53.1619,37.1751,116.5323,243.5816,0,U,61527,999,9499,.10922443E-3,.2878E-4,0
STARLINK-32319,2024-183V,2026-06-18T04:21:34.964352,15.30563127,.000136,53.1605,35.9833,107.4625,252.6524,0,U,61528,999,9503,.17825433E-2,.53415E-3,0
STARLINK-32351,2024-183W,2026-06-18T00:22:56.491104,15.30197569,.00014207,53.1612,33.5556,97.8063,262.3099,0,U,61529,999,9505,-.39085022E-4,-.1517E-4,0
STARLINK-32261,2024-183X,2026-06-17T20:45:37.790208,15.31688627,.00012861,53.1603,36.8755,97.2465,262.8683,0,U,61530,999,9499,.11523232E-3,.3211E-4,0
STARLINK-32358,2024-183Y,2026-06-17T20:38:46.650624,15.49324797,.00014727,53.1604,31.8616,122.8180,237.2971,0,U,61531,999,9506,.46349195E-4,.2131E-4,0
STARLINK-11354 [DTC],2024-184A,2026-06-18T04:58:56.455968,15.69739378,.00009565,53.1599,100.8315,85.4278,274.6849,0,U,61532,999,9620,-.42844109E-4,-.5782E-4,0
STARLINK-11323 [DTC],2024-184B,2026-06-18T04:44:49.294464,15.69710478,.00009577,53.1586,100.7655,105.5533,254.5591,0,U,61533,999,9620,.4904076E-5,.6E-7,0
STARLINK-11338 [DTC],2024-184C,2026-06-18T04:51:52.969824,15.69712884,.00008707,53.1581,100.7992,80.3331,279.7785,0,U,61534,999,9620,-.387418E-6,-.635E-5,0
STARLINK-11362 [DTC],2024-184D,2026-06-18T01:27:19.879200,15.69710441,.00010665,53.1595,101.3308,73.4552,286.6583,0,U,61535,999,9618,.3614867E-5,-.151E-5,0
STARLINK-11295 [DTC],2024-184E,2026-06-18T01:34:23.716128,15.69707646,.00010198,53.1588,101.3613,73.3626,286.7504,0,U,61536,999,9618,.731295E-5,.297E-5,0
STARLINK-11325 [DTC],2024-184G,2026-06-18T02:44:53.017728,15.69716514,.00012901,53.1600,100.9528,92.0017,268.1149,0,U,61538,999,9619,-.919514E-6,-.7E-5,0
STARLINK-11332 [DTC],2024-184H,2026-06-18T02:37:49.544544,15.69710072,.00011429,53.1595,100.9416,93.2906,266.8243,0,U,61539,999,9619,.330157E-5,-.189E-5,0
STARLINK-11350 [DTC],2024-184J,2026-06-18T02:30:45.023328,15.69736808,.0001695,53.1601,100.8890,68.9441,291.1758,0,U,61540,999,9619,-.416709E-4,-.5641E-4,0
STARLINK-11357 [DTC],2024-184K,2026-06-18T02:23:50.351712,15.69712928,.00012244,53.1592,101.5891,67.9215,292.1932,0,U,61541,999,9618,.3063678E-5,-.218E-5,0
STARLINK-11322 [DTC],2024-184L,2026-06-18T02:16:48.560736,15.69701973,.00019825,53.1600,101.5567,43.0538,317.0635,0,U,61542,999,9724,-.23525267E-4,-.3438E-4,0
STARLINK-11364 [DTC],2024-184M,2026-06-18T02:09:42.537024,15.69707421,.00007918,53.1577,101.5199,79.3098,280.8009,0,U,61543,999,9618,.9197054E-5,.526E-5,0
STARLINK-11349 [DTC],2024-184N,2026-06-18T05:06:00.603072,15.69712535,.00008955,53.1597,100.8629,90.7734,269.3387,0,U,61544,999,9620,.7460524E-5,.316E-5,0
STARLINK-32406,2024-184P,2026-06-18T06:51:18.306720,15.34397588,.00013613,53.1615,266.3347,87.1101,273.0057,0,U,61545,999,9391,.2893762E-4,.601E-5,0
STARLINK-32445,2024-184Q,2026-06-17T13:03:09.995616,15.34413689,.0001285,53.1599,269.5296,69.2543,290.8597,0,U,61546,999,9380,.14783E-3,.4624E-4,0
STARLINK-32411,2024-184R,2026-06-18T07:09:29.295072,15.34393580,.0001462,53.1617,266.4112,99.5299,260.5869,0,U,61547,999,9391,.56400853E-4,.1529E-4,0
STARLINK-32424,2024-184S,2026-06-18T06:24:02.683008,15.34391462,.0001347,53.1620,266.2183,90.0644,270.0513,0,U,61548,999,9391,-.453628E-5,-.529E-5,0
STARLINK-32389,2024-184T,2026-06-17T12:51:35.902080,15.30190084,.0001459,53.1610,270.1873,85.7748,274.3419,0,U,61549,999,9379,.2933E-4,.509E-5,0
STARLINK-32476,2024-184U,2026-06-18T03:25:32.476800,15.34396431,.00013077,53.1601,266.8649,78.3592,281.7557,0,U,61550,999,9389,.42045528E-4,.1044E-4,0
